NANOSATC-BR1            
1 40024U 14033Q   26068.98267556  .00020336  00000+0  74295-3 0  9994
2 40024  98.0845  92.7804 0004644 147.6715 212.4808 15.28136801638811
STARLINK-33930          
1 63776U 25091B   26068.98387961  .00036552  00000+0  13300-2 0  9998
2 63776  43.0043  51.1728 0001377 286.4018  73.6682 15.27610061 48942
